[
    {
    "category": "Fire",
    "type": "Ash",
    "city": "Arlington",
    "state": "TX",
    "zip": "76010",
    "Fire Dept phone": "817-459-5539", 
    "Police Dept phone" : "9-1-1", 
    "Allstate Insurance" : "800-255-7828",
    "email-fire": "fire@arlingtontx.gov", 
    "email-police": "policeadmin@arlingtontx.gov"
  },
  {
    "category": "Fire",
    "type": "Hot",
    "city": "Arlington",
    "state": "TX",
    "zip": "76010",
    "Fire Dept phone": "817-459-5539", 
    "Police Dept phone" : "9-1-1", 
    "Allstate Insurance" : "800-255-7828",
    "email-fire": "fire@arlingtontx.gov", 
    "email-police": "policeadmin@arlingtontx.gov"
  },
  {
    "category": "Fire",
    "type": "Flame",
    "city": "Arlington",
    "state": "TX",
    "zip": "76010",
    "Fire Dept phone": "817-459-5539", 
    "Police Dept phone" : "9-1-1", 
    "Allstate Insurance" : "800-255-7828",
    "email-fire": "fire@arlingtontx.gov", 
    "email-police": "policeadmin@arlingtontx.gov"
  },
  {
    "category": "Fire",
    "type": "Inferno",
    "city": "Arlington",
    "state": "TX",
    "zip": "76010",
    "Fire Dept phone": "817-459-5539", 
    "Police Dept phone" : "9-1-1", 
    "Allstate Insurance" : "800-255-7828",
    "email-fire": "fire@arlingtontx.gov", 
    "email-police": "policeadmin@arlingtontx.gov"
  },
  {
    "category": "Fire",
    "type": "Smoke",
    "city": "Arlington",
    "state": "TX",
    "zip": "76010",
    "Fire Dept phone": "817-459-5539", 
    "Police Dept phone" : "9-1-1", 
    "Allstate Insurance" : "800-255-7828",
    "email-fire": "fire@arlingtontx.gov", 
    "email-police": "policeadmin@arlingtontx.gov"
  },
  {
    "category": "Fire",
    "type": "Calamity",
    "city": "Arlington",
    "state": "TX",
    "zip": "76010",
    "Fire Dept phone": "817-459-5539", 
    "Police Dept phone" : "9-1-1", 
    "Allstate Insurance" : "800-255-7828",
    "email-fire": "fire@arlingtontx.gov", 
    "email-police": "policeadmin@arlingtontx.gov"
  },
  {
    "category": "Fire",
    "type": "Emergency",
    "city": "Arlington",
    "state": "TX",
    "zip": "76010",
    "Fire Dept phone": "817-459-5539", 
    "Police Dept phone" : "9-1-1", 
    "Allstate Insurance" : "800-255-7828",
    "email-fire": "fire@arlingtontx.gov", 
    "email-police": "policeadmin@arlingtontx.gov"
  },
  {
    "category": "Fire",
    "type": "Arson",
    "city": "Arlington",
    "state": "TX",
    "zip": "76010",
    "Fire Dept phone": "817-459-5539", 
    "Police Dept phone" : "9-1-1", 
    "Allstate Insurance" : "800-255-7828",
    "email-fire": "fire@arlingtontx.gov", 
    "email-police": "policeadmin@arlingtontx.gov"
  },
  {
    "category": "Fire",
    "type": "Burn",
    "city": "Arlington",
    "state": "TX",
    "zip": "76010",
    "Fire Dept phone": "817-459-5539", 
    "Police Dept phone" : "9-1-1", 
    "Allstate Insurance" : "800-255-7828",
    "email-fire": "fire@arlingtontx.gov", 
    "email-police": "policeadmin@arlingtontx.gov"
  },
  {
    "category": "Fire",
    "type": "Heat",
    "city": "Arlington",
    "county": "Tarrant",
    "state": "TX",
    "zip": "76010",
    "Fire Dept phone": "817-459-5539", 
    "Police Dept phone" : "9-1-1", 
    "Allstate Insurance" : "800-255-7828",
    "email-fire": "fire@arlingtontx.gov", 
    "email-police": "policeadmin@arlingtontx.gov"
  },
  {
    "category": "Fire",
    "type": "Ignite",
    "city": "Arlington",
    "state": "TX",
    "zip": "76010",
    "Fire Dept phone": "817-459-5539", 
    "Police Dept phone" : "9-1-1", 
    "Allstate Insurance" : "800-255-7828",
    "email-fire": "fire@arlingtontx.gov", 
    "email-police": "policeadmin@arlingtontx.gov"
  },
  {
    "category": "Fire",
    "type": "Blaze",
    "city": "Arlington",
    "state": "TX",
    "zip": "76010",
    "Fire Dept phone": "817-459-5539", 
    "Police Dept phone" : "9-1-1", 
    "Allstate Insurance" : "800-255-7828",
    "email-fire": "fire@arlingtontx.gov", 
    "email-police": "policeadmin@arlingtontx.gov"
  },
  {
    "category": "Automobile Accidents",
    "type": "Broken",
    "city": "Arlington",
    "state": "TX",
    "zip": "76010", 
    "Police Dept phone" : "9-1-1", 
    "Allstate Insurance" : "800-255-7828",
    "email-police": "policeadmin@arlingtontx.gov"
  },
  {
    "category": "Automobile Accidents",
    "type": "Accident",
    "city": "Arlington",
    "state": "TX",
    "zip": "76010",
    "Police Dept phone" : "9-1-1", 
    "Allstate Insurance" : "800-255-7828", 
    "email-police": "policeadmin@arlingtontx.gov"
  },
  {
    "category": "Automobile Accidents",
    "type": "Wreck",
    "city": "Arlington",
    "state": "TX",
    "zip": "76010",
    "Police Dept phone" : "9-1-1", 
    "Allstate Insurance" : "800-255-7828",
    "email-police": "policeadmin@arlingtontx.gov"
  },
  {
    "category": "Automobile Accidents",
    "type": "Repair",
    "city": "Arlington",
    "state": "TX",
    "zip": "76010",
    "Police Dept phone" : "9-1-1", 
    "Allstate Insurance" : "800-255-7828",
    "email-police": "policeadmin@arlingtontx.gov"
  },
  {
    "category": "Automobile Accidents",
    "type": "Crash",
    "city": "Arlington",
    "state": "TX",
    "zip": "76010",
    "Police Dept phone" : "9-1-1", 
    "Allstate Insurance" : "800-255-7828",
    "email-police": "policeadmin@arlingtontx.gov"
  },
  {
    "category": "Automobile Accidents",
    "type": "Insurance",
    "city": "Arlington",
    "state": "TX",
    "zip": "76010",
    "Police Dept phone" : "9-1-1", 
    "Allstate Insurance" : "800-255-7828",
    "email-police": "policeadmin@arlingtontx.gov"
  },
  {
    "category": "Automobile Accidents",
    "type": "Garbage",
    "city": "Arlington",
    "state": "TX",
    "zip": "76010",
    "Police Dept phone" : "9-1-1", 
    "Allstate Insurance" : "800-255-7828",
    "email-police": "policeadmin@arlingtontx.gov"
  },
  {
    "category": "Automobile Accidents",
    "type": "Trash",
    "city": "Arlington",
    "state": "TX",
    "zip": "76010",
    "Police Dept phone" : "9-1-1", 
    "Allstate Insurance" : "800-255-7828",
    "email-police": "policeadmin@arlingtontx.gov"
  },
  {
    "category": "Automobile Accidents",
    "type": "Junk",
    "city": "Arlington",
    "state": "TX",
    "zip": "76010",
    "Police Dept phone" : "9-1-1", 
    "Allstate Insurance" : "800-255-7828",
    "email-police": "policeadmin@arlingtontx.gov"
  },
  {
    "category": "Automobile Accidents",
    "type": "Demolished",
    "city": "Arlington",
    "state": "TX",
    "zip": "76010",
    "Police Dept phone" : "9-1-1", 
    "Allstate Insurance" : "800-255-7828",
    "email-police": "policeadmin@arlingtontx.gov"
  },
  {
    "category": "Vandalism",
    "type": "Vandalism",
    "city": "Arlington",
    "state": "TX",
    "zip": "76010",
    "Police Dept phone" : "9-1-1", 
    "Allstate Insurance" : "800-255-7828",
    "email-police": "policeadmin@arlingtontx.gov"
  },
  {
    "category": "Vandalism",
    "type": "Gaff",
    "city": "Arlington",
    "state": "TX",
    "zip": "76010",
    "Police Dept phone" : "9-1-1", 
    "Allstate Insurance" : "800-255-7828",
    "email-police": "policeadmin@arlingtontx.gov"
  },
  {
    "category": "Vandalism",
    "type": "Dirty",
    "city": "Arlington",
    "state": "TX",
    "zip": "76010",
    "Police Dept phone" : "9-1-1", 
    "Allstate Insurance" : "800-255-7828",
    "email-police": "policeadmin@arlingtontx.gov"
  }
]